CCSDS_OMM_VERS = 2.0
CREATION_DATE  = 
ORIGINATOR     = 

OBJECT_NAME    = STARLINK-35864
OBJECT_ID      = 2025-298G
CENTER_NAME    = EARTH
REF_FRAME      = TEME
TIME_SYSTEM    = UTC
MEAN_ELEMENT_THEORY = SGP/SGP4

EPOCH          = 2026-01-08T06:00:02.999808
MEAN_MOTION    = 15.42645964
ECCENTRICITY   = .00031631
INCLINATION    = 70.0002
RA_OF_ASC_NODE = 175.7273
ARG_OF_PERICENTER = 273.0234
MEAN_ANOMALY   = 50.2028

EPHEMERIS_TYPE = 0
CLASSIFICATION_TYPE = U
NORAD_CAT_ID   = 67081
ELEMENT_SET_NO = 999
REV_AT_EPOCH   = 523
BSTAR          = .19733137E-2
MEAN_MOTION_DOT = .87053E-3
MEAN_MOTION_DDOT = 0

CCSDS_OMM_VERS = 2.0
CREATION_DATE  = 
ORIGINATOR     = 

OBJECT_NAME    = STARLINK-36035
OBJECT_ID      = 2025-298H
CENTER_NAME    = EARTH
REF_FRAME      = TEME
TIME_SYSTEM    = UTC
MEAN_ELEMENT_THEORY = SGP/SGP4

EPOCH          = 2026-01-08T06:00:02.999808
MEAN_MOTION    = 15.42644337
ECCENTRICITY   = .00028793
INCLINATION    = 70.0003
RA_OF_ASC_NODE = 175.7531
ARG_OF_PERICENTER = 270.0940
MEAN_ANOMALY   = 31.1405

EPHEMERIS_TYPE = 0
CLASSIFICATION_TYPE = U
NORAD_CAT_ID   = 67082
ELEMENT_SET_NO = 999
REV_AT_EPOCH   = 523
BSTAR          = .19637751E-2
MEAN_MOTION_DOT = .8662E-3
MEAN_MOTION_DDOT = 0

CCSDS_OMM_VERS = 2.0
CREATION_DATE  = 
ORIGINATOR     = 

OBJECT_NAME    = STARLINK-36170
OBJECT_ID      = 2025-298J
CENTER_NAME    = EARTH
REF_FRAME      = TEME
TIME_SYSTEM    = UTC
MEAN_ELEMENT_THEORY = SGP/SGP4

EPOCH          = 2026-01-08T04:08:08.097216
MEAN_MOTION    = 15.52572226
ECCENTRICITY   = .00039441
INCLINATION    = 70.0003
RA_OF_ASC_NODE = 175.8130
ARG_OF_PERICENTER = 274.9698
MEAN_ANOMALY   = 85.1039

EPHEMERIS_TYPE = 0
CLASSIFICATION_TYPE = U
NORAD_CAT_ID   = 67083
ELEMENT_SET_NO = 999
REV_AT_EPOCH   = 393
BSTAR          = .16189067E-2
MEAN_MOTION_DOT = .100903E-2
MEAN_MOTION_DDOT = 0

CCSDS_OMM_VERS = 2.0
CREATION_DATE  = 
ORIGINATOR     = 

OBJECT_NAME    = STARLINK-36166
OBJECT_ID      = 2025-298K
CENTER_NAME    = EARTH
REF_FRAME      = TEME
TIME_SYSTEM    = UTC
MEAN_ELEMENT_THEORY = SGP/SGP4

EPOCH          = 2026-01-08T04:07:38.598528
MEAN_MOTION    = 15.52588032
ECCENTRICITY   = .00037895
INCLINATION    = 70.0004
RA_OF_ASC_NODE = 175.8114
ARG_OF_PERICENTER = 279.7240
MEAN_ANOMALY   = 80.3519

EPHEMERIS_TYPE = 0
CLASSIFICATION_TYPE = U
NORAD_CAT_ID   = 67084
ELEMENT_SET_NO = 999
REV_AT_EPOCH   = 393
BSTAR          = .18175342E-2
MEAN_MOTION_DOT = .113547E-2
MEAN_MOTION_DDOT = 0

CCSDS_OMM_VERS = 2.0
CREATION_DATE  = 
ORIGINATOR     = 

OBJECT_NAME    = STARLINK-35794
OBJECT_ID      = 2025-298L
CENTER_NAME    = EARTH
REF_FRAME      = TEME
TIME_SYSTEM    = UTC
MEAN_ELEMENT_THEORY = SGP/SGP4

EPOCH          = 2026-01-08T04:47:52.948896
MEAN_MOTION    = 15.42791106
ECCENTRICITY   = .00033381
INCLINATION    = 70.0008
RA_OF_ASC_NODE = 175.9134
ARG_OF_PERICENTER = 268.5503
MEAN_ANOMALY   = 91.5297

EPHEMERIS_TYPE = 0
CLASSIFICATION_TYPE = U
NORAD_CAT_ID   = 67085
ELEMENT_SET_NO = 999
REV_AT_EPOCH   = 393
BSTAR          = .12696485E-2
MEAN_MOTION_DOT = .56005E-3
MEAN_MOTION_DDOT = 0

CCSDS_OMM_VERS = 2.0
CREATION_DATE  = 
ORIGINATOR     = 

OBJECT_NAME    = STARLINK-35841
OBJECT_ID      = 2025-298M
CENTER_NAME    = EARTH
REF_FRAME      = TEME
TIME_SYSTEM    = UTC
MEAN_ELEMENT_THEORY = SGP/SGP4

EPOCH          = 2026-01-07T17:17:12.202368
MEAN_MOTION    = 15.52539085
ECCENTRICITY   = .00032582
INCLINATION    = 70.0004
RA_OF_ASC_NODE = 177.0443
ARG_OF_PERICENTER = 275.8122
MEAN_ANOMALY   = 84.2693

EPHEMERIS_TYPE = 0
CLASSIFICATION_TYPE = U
NORAD_CAT_ID   = 67086
ELEMENT_SET_NO = 999
REV_AT_EPOCH   = 386
BSTAR          = .11533777E-2
MEAN_MOTION_DOT = .71481E-3
MEAN_MOTION_DDOT = 0

CCSDS_OMM_VERS = 2.0
CREATION_DATE  = 
ORIGINATOR     = 

OBJECT_NAME    = STARLINK-35842
OBJECT_ID      = 2025-298N
CENTER_NAME    = EARTH
REF_FRAME      = TEME
TIME_SYSTEM    = UTC
MEAN_ELEMENT_THEORY = SGP/SGP4

EPOCH          = 2026-01-08T04:17:19.268736
MEAN_MOTION    = 15.42746906
ECCENTRICITY   = .00032577
INCLINATION    = 70.0002
RA_OF_ASC_NODE = 176.2486
ARG_OF_PERICENTER = 268.5672
MEAN_ANOMALY   = 91.5136

EPHEMERIS_TYPE = 0
CLASSIFICATION_TYPE = U
NORAD_CAT_ID   = 67087
ELEMENT_SET_NO = 999
REV_AT_EPOCH   = 392
BSTAR          = .95457784E-3
MEAN_MOTION_DOT = .41931E-3
MEAN_MOTION_DDOT = 0

CCSDS_OMM_VERS = 2.0
CREATION_DATE  = 
ORIGINATOR     = 

OBJECT_NAME    = STARLINK-35882
OBJECT_ID      = 2025-298P
CENTER_NAME    = EARTH
REF_FRAME      = TEME
TIME_SYSTEM    = UTC
MEAN_ELEMENT_THEORY = SGP/SGP4

EPOCH          = 2026-01-07T20:21:46.401408
MEAN_MOTION    = 15.52544469
ECCENTRICITY   = .00036811
INCLINATION    = 70.0003
RA_OF_ASC_NODE = 176.6891
ARG_OF_PERICENTER = 273.1978
MEAN_ANOMALY   = 86.8788

EPHEMERIS_TYPE = 0
CLASSIFICATION_TYPE = U
NORAD_CAT_ID   = 67088
ELEMENT_SET_NO = 999
REV_AT_EPOCH   = 388
BSTAR          = .96555588E-3
MEAN_MOTION_DOT = .5974E-3
MEAN_MOTION_DDOT = 0

CCSDS_OMM_VERS = 2.0
CREATION_DATE  = 
ORIGINATOR     = 

OBJECT_NAME    = STARLINK-35763
OBJECT_ID      = 2025-298Q
CENTER_NAME    = EARTH
REF_FRAME      = TEME
TIME_SYSTEM    = UTC
MEAN_ELEMENT_THEORY = SGP/SGP4

EPOCH          = 2026-01-08T06:00:02.999808
MEAN_MOTION    = 15.42650558
ECCENTRICITY   = .00032822
INCLINATION    = 70.0003
RA_OF_ASC_NODE = 175.6871
ARG_OF_PERICENTER = 270.0591
MEAN_ANOMALY   = 87.1590

EPHEMERIS_TYPE = 0
CLASSIFICATION_TYPE = U
NORAD_CAT_ID   = 67089
ELEMENT_SET_NO = 999
REV_AT_EPOCH   = 523
BSTAR          = .19841055E-2
MEAN_MOTION_DOT = .8755E-3
MEAN_MOTION_DDOT = 0

CCSDS_OMM_VERS = 2.0
CREATION_DATE  = 
ORIGINATOR     = 

OBJECT_NAME    = STARLINK-36060
OBJECT_ID      = 2025-298R
CENTER_NAME    = EARTH
REF_FRAME      = TEME
TIME_SYSTEM    = UTC
MEAN_ELEMENT_THEORY = SGP/SGP4

EPOCH          = 2026-01-08T06:00:02.999808
MEAN_MOTION    = 15.47506597
ECCENTRICITY   = .00035139
INCLINATION    = 70.0005
RA_OF_ASC_NODE = 175.5914
ARG_OF_PERICENTER = 271.1844
MEAN_ANOMALY   = 166.7462

EPHEMERIS_TYPE = 0
CLASSIFICATION_TYPE = U
NORAD_CAT_ID   = 67090
ELEMENT_SET_NO = 999
REV_AT_EPOCH   = 517
BSTAR          = -.43046302E-1
MEAN_MOTION_DOT = -.1984695E-1
MEAN_MOTION_DDOT = 0

CCSDS_OMM_VERS = 2.0
CREATION_DATE  = 
ORIGINATOR     = 

OBJECT_NAME    = STARLINK-36097
OBJECT_ID      = 2025-298S
CENTER_NAME    = EARTH
REF_FRAME      = TEME
TIME_SYSTEM    = UTC
MEAN_ELEMENT_THEORY = SGP/SGP4

EPOCH          = 2026-01-08T06:00:02.999808
MEAN_MOTION    = 15.44667383
ECCENTRICITY   = .0003792
INCLINATION    = 70.0003
RA_OF_ASC_NODE = 175.6094
ARG_OF_PERICENTER = 275.1274
MEAN_ANOMALY   = 148.8046

EPHEMERIS_TYPE = 0
CLASSIFICATION_TYPE = U
NORAD_CAT_ID   = 67091
ELEMENT_SET_NO = 999
REV_AT_EPOCH   = 523
BSTAR          = -.57052871E-1
MEAN_MOTION_DOT = -.2379351E-1
MEAN_MOTION_DDOT = 0

CCSDS_OMM_VERS = 2.0
CREATION_DATE  = 
ORIGINATOR     = 

OBJECT_NAME    = STARLINK-35792
OBJECT_ID      = 2025-298T
CENTER_NAME    = EARTH
REF_FRAME      = TEME
TIME_SYSTEM    = UTC
MEAN_ELEMENT_THEORY = SGP/SGP4

EPOCH          = 2026-01-08T06:00:02.999808
MEAN_MOTION    = 15.42632969
ECCENTRICITY   = .00038252
INCLINATION    = 70.0004
RA_OF_ASC_NODE = 175.6349
ARG_OF_PERICENTER = 274.4051
MEAN_ANOMALY   = 128.7565

EPHEMERIS_TYPE = 0
CLASSIFICATION_TYPE = U
NORAD_CAT_ID   = 67092
ELEMENT_SET_NO = 999
REV_AT_EPOCH   = 517
BSTAR          = .21843056E-2
MEAN_MOTION_DOT = .96459E-3
MEAN_MOTION_DDOT = 0

CCSDS_OMM_VERS = 2.0
CREATION_DATE  = 
ORIGINATOR     = 

OBJECT_NAME    = STARLINK-35784
OBJECT_ID      = 2025-298U
CENTER_NAME    = EARTH
REF_FRAME      = TEME
TIME_SYSTEM    = UTC
MEAN_ELEMENT_THEORY = SGP/SGP4

EPOCH          = 2026-01-08T06:00:02.999808
MEAN_MOTION    = 15.42649798
ECCENTRICITY   = .00032681
INCLINATION    = 70.0002
RA_OF_ASC_NODE = 175.7381
ARG_OF_PERICENTER = 272.2307
MEAN_ANOMALY   = 39.9966

EPHEMERIS_TYPE = 0
CLASSIFICATION_TYPE = U
NORAD_CAT_ID   = 67093
ELEMENT_SET_NO = 999
REV_AT_EPOCH   = 523
BSTAR          = .19141597E-2
MEAN_MOTION_DOT = .84422E-3
MEAN_MOTION_DDOT = 0

CCSDS_OMM_VERS = 2.0
CREATION_DATE  = 
ORIGINATOR     = 

OBJECT_NAME    = STARLINK-36202
OBJECT_ID      = 2025-298V
CENTER_NAME    = EARTH
REF_FRAME      = TEME
TIME_SYSTEM    = UTC
MEAN_ELEMENT_THEORY = SGP/SGP4

EPOCH          = 2026-01-08T06:00:02.999808
MEAN_MOTION    = 15.42653479
ECCENTRICITY   = .00034776
INCLINATION    = 70.0002
RA_OF_ASC_NODE = 175.7117
ARG_OF_PERICENTER = 270.8315
MEAN_ANOMALY   = 64.3676

EPHEMERIS_TYPE = 0
CLASSIFICATION_TYPE = U
NORAD_CAT_ID   = 67094
ELEMENT_SET_NO = 999
REV_AT_EPOCH   = 523
BSTAR          = .21175032E-2
MEAN_MOTION_DOT = .9353E-3
MEAN_MOTION_DDOT = 0

CCSDS_OMM_VERS = 2.0
CREATION_DATE  = 
ORIGINATOR     = 

OBJECT_NAME    = STARLINK-36227
OBJECT_ID      = 2025-298W
CENTER_NAME    = EARTH
REF_FRAME      = TEME
TIME_SYSTEM    = UTC
MEAN_ELEMENT_THEORY = SGP/SGP4

EPOCH          = 2026-01-08T06:00:02.999808
MEAN_MOTION    = 15.49104944
ECCENTRICITY   = .00037082
INCLINATION    = 70.0004
RA_OF_ASC_NODE = 175.5737
ARG_OF_PERICENTER = 276.1476
MEAN_ANOMALY   = 176.6540

EPHEMERIS_TYPE = 0
CLASSIFICATION_TYPE = U
NORAD_CAT_ID   = 67095
ELEMENT_SET_NO = 999
REV_AT_EPOCH   = 517
BSTAR          = -.40963975E-1
MEAN_MOTION_DOT = -.1996563E-1
MEAN_MOTION_DDOT = 0

